[{"OBJECT_NAME":"TRANSPORTER-16 OBJECT CB","OBJECT_ID":"2026-067CB","EPOCH":"2026-04-13T22:14:51.026208","MEAN_MOTION":14.91259781,"ECCENTRICITY":6.32e-5,"INCLINATION":97.749,"RA_OF_ASC_NODE":63.1781,"ARG_OF_PERICENTER":324.3277,"MEAN_ANOMALY":35.7899,"EPHEMERIS_TYPE":0,"CLASSIFICATION_TYPE":"U","NORAD_CAT_ID":68489,"ELEMENT_SET_NO":999,"REV_AT_EPOCH":214,"BSTAR":0.00016558,"MEAN_MOTION_DOT":1.592e-5,"MEAN_MOTION_DDOT":0},{"OBJECT_NAME":"TRANSPORTER-16 OBJECT CC","OBJECT_ID":"2026-067CC","EPOCH":"2026-04-13T22:13:41.365344","MEAN_MOTION":14.91339307,"ECCENTRICITY":0.0001134,"INCLINATION":97.7565,"RA_OF_ASC_NODE":63.1887,"ARG_OF_PERICENTER":197.4488,"MEAN_ANOMALY":162.6691,"EPHEMERIS_TYPE":0,"CLASSIFICATION_TYPE":"U","NORAD_CAT_ID":68490,"ELEMENT_SET_NO":999,"REV_AT_EPOCH":214,"BSTAR":0.00012695,"MEAN_MOTION_DOT":1.21e-5,"MEAN_MOTION_DDOT":0},{"OBJECT_NAME":"TRANSPORTER-16 OBJECT CD","OBJECT_ID":"2026-067CD","EPOCH":"2026-04-13T22:17:13.130016","MEAN_MOTION":14.91108873,"ECCENTRICITY":0.000139,"INCLINATION":97.7512,"RA_OF_ASC_NODE":63.1797,"ARG_OF_PERICENTER":270.7491,"MEAN_ANOMALY":89.3568,"EPHEMERIS_TYPE":0,"CLASSIFICATION_TYPE":"U","NORAD_CAT_ID":68491,"ELEMENT_SET_NO":999,"REV_AT_EPOCH":214,"BSTAR":0.00021058,"MEAN_MOTION_DOT":2.032e-5,"MEAN_MOTION_DDOT":0},{"OBJECT_NAME":"TRANSPORTER-16 OBJECT CE","OBJECT_ID":"2026-067CE","EPOCH":"2026-04-13T22:18:08.855424","MEAN_MOTION":14.91053114,"ECCENTRICITY":0.0001685,"INCLINATION":97.7516,"RA_OF_ASC_NODE":63.179,"ARG_OF_PERICENTER":271.6956,"MEAN_ANOMALY":88.407,"EPHEMERIS_TYPE":0,"CLASSIFICATION_TYPE":"U","NORAD_CAT_ID":68492,"ELEMENT_SET_NO":999,"REV_AT_EPOCH":214,"BSTAR":0.00026651,"MEAN_MOTION_DOT":2.583e-5,"MEAN_MOTION_DDOT":0},{"OBJECT_NAME":"TRANSPORTER-16 OBJECT CF","OBJECT_ID":"2026-067CF","EPOCH":"2026-04-13T22:17:04.140096","MEAN_MOTION":14.91114555,"ECCENTRICITY":0.0002469,"INCLINATION":97.7602,"RA_OF_ASC_NODE":63.1902,"ARG_OF_PERICENTER":221.8745,"MEAN_ANOMALY":138.2285,"EPHEMERIS_TYPE":0,"CLASSIFICATION_TYPE":"U","NORAD_CAT_ID":68493,"ELEMENT_SET_NO":999,"REV_AT_EPOCH":214,"BSTAR":0.00017837,"MEAN_MOTION_DOT":1.713e-5,"MEAN_MOTION_DDOT":0},{"OBJECT_NAME":"TRANSPORTER-16 OBJECT CG","OBJECT_ID":"2026-067CG","EPOCH":"2026-04-13T22:13:15.348576","MEAN_MOTION":14.91369486,"ECCENTRICITY":0.00010042,"INCLINATION":97.7563,"RA_OF_ASC_NODE":63.189,"ARG_OF_PERICENTER":191.7413,"MEAN_ANOMALY":168.3782,"EPHEMERIS_TYPE":0,"CLASSIFICATION_TYPE":"U","NORAD_CAT_ID":68494,"ELEMENT_SET_NO":999,"REV_AT_EPOCH":214,"BSTAR":0.00012124543,"MEAN_MOTION_DOT":1.154e-5,"MEAN_MOTION_DDOT":0},{"OBJECT_NAME":"TRANSPORTER-16 OBJECT CH","OBJECT_ID":"2026-067CH","EPOCH":"2026-04-13T22:23:29.260320","MEAN_MOTION":14.89054368,"ECCENTRICITY":0.0001892,"INCLINATION":97.756,"RA_OF_ASC_NODE":63.1781,"ARG_OF_PERICENTER":193.578,"MEAN_ANOMALY":166.5387,"EPHEMERIS_TYPE":0,"CLASSIFICATION_TYPE":"U","NORAD_CAT_ID":68495,"ELEMENT_SET_NO":999,"REV_AT_EPOCH":214,"BSTAR":5.3487e-5,"MEAN_MOTION_DOT":4.5e-6,"MEAN_MOTION_DDOT":0},{"OBJECT_NAME":"TRANSPORTER-16 OBJECT CJ","OBJECT_ID":"2026-067CJ","EPOCH":"2026-04-13T22:05:41.174880","MEAN_MOTION":14.91919969,"ECCENTRICITY":0.00026765,"INCLINATION":97.7559,"RA_OF_ASC_NODE":63.1954,"ARG_OF_PERICENTER":124.3924,"MEAN_ANOMALY":235.7548,"EPHEMERIS_TYPE":0,"CLASSIFICATION_TYPE":"U","NORAD_CAT_ID":68496,"ELEMENT_SET_NO":999,"REV_AT_EPOCH":214,"BSTAR":0.00016399005,"MEAN_MOTION_DOT":1.603e-5,"MEAN_MOTION_DDOT":0},{"OBJECT_NAME":"TRANSPORTER-16 OBJECT CK","OBJECT_ID":"2026-067CK","EPOCH":"2026-04-13T22:06:00.728928","MEAN_MOTION":14.91898012,"ECCENTRICITY":0.00024756,"INCLINATION":97.7542,"RA_OF_ASC_NODE":63.1928,"ARG_OF_PERICENTER":118.3185,"MEAN_ANOMALY":241.8284,"EPHEMERIS_TYPE":0,"CLASSIFICATION_TYPE":"U","NORAD_CAT_ID":68497,"ELEMENT_SET_NO":999,"REV_AT_EPOCH":214,"BSTAR":0.0001646372,"MEAN_MOTION_DOT":1.609e-5,"MEAN_MOTION_DDOT":0},{"OBJECT_NAME":"TRANSPORTER-16 OBJECT CL","OBJECT_ID":"2026-067CL","EPOCH":"2026-04-13T22:15:32.586336","MEAN_MOTION":14.91215242,"ECCENTRICITY":8.511e-5,"INCLINATION":97.7494,"RA_OF_ASC_NODE":63.179,"ARG_OF_PERICENTER":295.8274,"MEAN_ANOMALY":64.2857,"EPHEMERIS_TYPE":0,"CLASSIFICATION_TYPE":"U","NORAD_CAT_ID":68498,"ELEMENT_SET_NO":999,"REV_AT_EPOCH":214,"BSTAR":0.0001333233,"MEAN_MOTION_DOT":1.27e-5,"MEAN_MOTION_DDOT":0},{"OBJECT_NAME":"TRANSPORTER-16 OBJECT CM","OBJECT_ID":"2026-067CM","EPOCH":"2026-04-13T22:12:59.759424","MEAN_MOTION":14.91376567,"ECCENTRICITY":3.382e-5,"INCLINATION":97.7535,"RA_OF_ASC_NODE":63.1854,"ARG_OF_PERICENTER":139.2026,"MEAN_ANOMALY":220.9218,"EPHEMERIS_TYPE":0,"CLASSIFICATION_TYPE":"U","NORAD_CAT_ID":68499,"ELEMENT_SET_NO":999,"REV_AT_EPOCH":214,"BSTAR":0.00011541373,"MEAN_MOTION_DOT":1.096e-5,"MEAN_MOTION_DDOT":0},{"OBJECT_NAME":"TRANSPORTER-16 OBJECT CN","OBJECT_ID":"2026-067CN","EPOCH":"2026-04-13T22:12:40.189824","MEAN_MOTION":14.9141563,"ECCENTRICITY":0.00010403,"INCLINATION":97.7569,"RA_OF_ASC_NODE":63.1904,"ARG_OF_PERICENTER":179.7203,"MEAN_ANOMALY":180.4017,"EPHEMERIS_TYPE":0,"CLASSIFICATION_TYPE":"U","NORAD_CAT_ID":68500,"ELEMENT_SET_NO":999,"REV_AT_EPOCH":214,"BSTAR":0.00015741622,"MEAN_MOTION_DOT":1.517e-5,"MEAN_MOTION_DDOT":0},{"OBJECT_NAME":"TRANSPORTER-16 OBJECT CP","OBJECT_ID":"2026-067CP","EPOCH":"2026-04-13T22:15:49.765248","MEAN_MOTION":14.9122145,"ECCENTRICITY":0.00019446,"INCLINATION":97.7577,"RA_OF_ASC_NODE":63.1882,"ARG_OF_PERICENTER":220.4411,"MEAN_ANOMALY":139.6663,"EPHEMERIS_TYPE":0,"CLASSIFICATION_TYPE":"U","NORAD_CAT_ID":68501,"ELEMENT_SET_NO":999,"REV_AT_EPOCH":214,"BSTAR":0.00016728355,"MEAN_MOTION_DOT":1.607e-5,"MEAN_MOTION_DDOT":0},{"OBJECT_NAME":"TRANSPORTER-16 OBJECT CQ","OBJECT_ID":"2026-067CQ","EPOCH":"2026-04-13T22:11:44.031552","MEAN_MOTION":14.91483961,"ECCENTRICITY":0.00012416,"INCLINATION":97.7575,"RA_OF_ASC_NODE":63.1921,"ARG_OF_PERICENTER":169.701,"MEAN_ANOMALY":190.4235,"EPHEMERIS_TYPE":0,"CLASSIFICATION_TYPE":"U","NORAD_CAT_ID":68502,"ELEMENT_SET_NO":999,"REV_AT_EPOCH":214,"BSTAR":0.00015914041,"MEAN_MOTION_DOT":1.537e-5,"MEAN_MOTION_DDOT":0},{"OBJECT_NAME":"TRANSPORTER-16 OBJECT CR","OBJECT_ID":"2026-067CR","EPOCH":"2026-04-14T14:28:40.039680","MEAN_MOTION":14.90728949,"ECCENTRICITY":0.00028638,"INCLINATION":97.7523,"RA_OF_ASC_NODE":63.8356,"ARG_OF_PERICENTER":265.2204,"MEAN_ANOMALY":94.8687,"EPHEMERIS_TYPE":0,"CLASSIFICATION_TYPE":"U","NORAD_CAT_ID":68503,"ELEMENT_SET_NO":999,"REV_AT_EPOCH":224,"BSTAR":0.00011346025,"MEAN_MOTION_DOT":1.059e-5,"MEAN_MOTION_DDOT":0},{"OBJECT_NAME":"TRANSPORTER-16 OBJECT CS","OBJECT_ID":"2026-067CS","EPOCH":"2026-04-13T22:08:11.067648","MEAN_MOTION":14.91740358,"ECCENTRICITY":0.00020682,"INCLINATION":97.7575,"RA_OF_ASC_NODE":63.1954,"ARG_OF_PERICENTER":141.9586,"MEAN_ANOMALY":218.1779,"EPHEMERIS_TYPE":0,"CLASSIFICATION_TYPE":"U","NORAD_CAT_ID":68504,"ELEMENT_SET_NO":999,"REV_AT_EPOCH":214,"BSTAR":0.00015839323,"MEAN_MOTION_DOT":1.539e-5,"MEAN_MOTION_DDOT":0}]
