TRANSPORTER-16 OBJECT CB
1 68489U 26067CB  26103.92697947  .00001592  00000+0  16558-3 0  9995
2 68489  97.7490  63.1781 0000632 324.3277  35.7899 14.91259781  2143
TRANSPORTER-16 OBJECT CC
1 68490U 26067CC  26103.92617321  .00001210  00000+0  12695-3 0  9990
2 68490  97.7565  63.1887 0001134 197.4488 162.6691 14.91339307  2149
TRANSPORTER-16 OBJECT CD
1 68491U 26067CD  26103.92862419  .00002032  00000+0  21058-3 0  9997
2 68491  97.7512  63.1797 0001390 270.7491  89.3568 14.91108873  2145
TRANSPORTER-16 OBJECT CE
1 68492U 26067CE  26103.92926916  .00002583  00000+0  26651-3 0  9996
2 68492  97.7516  63.1790 0001685 271.6956  88.4070 14.91053114  2141
TRANSPORTER-16 OBJECT CF
1 68493U 26067CF  26103.92852014  .00001713  00000+0  17837-3 0  9994
2 68493  97.7602  63.1902 0002469 221.8745 138.2285 14.91114555  2146
TRANSPORTER-16 OBJECT CG
1 68494U 26067CG  26103.92587209  .00001154  00000+0  12125-3 0  9990
2 68494  97.7563  63.1890 0001004 191.7413 168.3782 14.91369486  2141
TRANSPORTER-16 OBJECT CH
1 68495U 26067CH  26103.93297755  .00000450  00000+0  53487-4 0  9991
2 68495  97.7560  63.1781 0001892 193.5780 166.5387 14.89054368  2148
TRANSPORTER-16 OBJECT CJ
1 68496U 26067CJ  26103.92061545  .00001603  00000+0  16399-3 0  9998
2 68496  97.7559  63.1954 0002676 124.3924 235.7548 14.91919969  2140
TRANSPORTER-16 OBJECT CK
1 68497U 26067CK  26103.92084177  .00001609  00000+0  16464-3 0  9994
2 68497  97.7542  63.1928 0002475 118.3185 241.8284 14.91898012  2143
TRANSPORTER-16 OBJECT CL
1 68498U 26067CL  26103.92746049  .00001270  00000+0  13332-3 0  9993
2 68498  97.7494  63.1790 0000851 295.8274  64.2857 14.91215242  2144
TRANSPORTER-16 OBJECT CM
1 68499U 26067CM  26103.92569166  .00001096  00000+0  11541-3 0  9993
2 68499  97.7535  63.1854 0000338 139.2026 220.9218 14.91376567  2148
TRANSPORTER-16 OBJECT CN
1 68500U 26067CN  26103.92546516  .00001517  00000+0  15742-3 0  9995
2 68500  97.7569  63.1904 0001040 179.7203 180.4017 14.91415630  2143
TRANSPORTER-16 OBJECT CP
1 68501U 26067CP  26103.92765932  .00001607  00000+0  16728-3 0  9996
2 68501  97.7577  63.1882 0001944 220.4411 139.6663 14.91221450  2144
TRANSPORTER-16 OBJECT CQ
1 68502U 26067CQ  26103.92481518  .00001537  00000+0  15914-3 0  9990
2 68502  97.7575  63.1921 0001241 169.7010 190.4235 14.91483961  2144
TRANSPORTER-16 OBJECT CR
1 68503U 26067CR  26104.60324120  .00001059  00000+0  11346-3 0  9996
2 68503  97.7523  63.8356 0002863 265.2204  94.8687 14.90728949  2241
TRANSPORTER-16 OBJECT CS
1 68504U 26067CS  26103.92235032  .00001539  00000+0  15839-3 0  9998
2 68504  97.7575  63.1954 0002068 141.9586 218.1779 14.91740358  2147
